0 THOR ABLESTAR DEB
1 00333U 61015DK  13281.35988104  .00001551  00000-0  40499-3 0  9389
2 00333 066.7176 276.2243 0067556 225.5806 133.9763 14.50882694712534
0 THOR ABLESTAR DEB
1 00333U 61015DK  13282.39388574  .00001812  00000-0  46901-3 0  9394
2 00333 066.7175 273.4284 0067446 224.8479 134.7168 14.50894368712688
0 THOR ABLESTAR DEB
1 00333U 61015DK  13283.42788356  .00001718  00000-0  44578-3 0  9406
2 00333 066.7176 270.6323 0067380 224.1183 135.4540 14.50897536712833
0 THOR ABLESTAR DEB
1 00333U 61015DK  13286.32306008  .00002049  00000-0  52710-3 0  9425
2 00333 066.7180 262.8064 0067276 221.9775 137.6168 14.50904777713252
0 THOR ABLESTAR DEB
1 00333U 61015DK  13288.04636984  .00003404  00000-0  85945-3 0  9438
2 00333 066.7183 258.1461 0067141 220.7325 138.8753 14.50914653713508
0 THOR ABLESTAR DEB
1 00333U 61015DK  13289.28714464  .00002823  00000-0  71682-3 0  9443
2 00333 066.7186 254.7907 0067006 219.8542 139.7636 14.50920660713682
0 THOR ABLESTAR DEB
1 00333U 61015DK  13290.52791536  .00002709  00000-0  68898-3 0  9456
2 00333 066.7190 251.4355 0066903 218.9774 140.6504 14.50927560713861
0 THOR ABLESTAR DEB
1 00333U 61015DK  13292.04440397  .00002605  00000-0  66337-3 0  9463
2 00333 066.7194 247.3351 0066798 217.9031 141.7367 14.50933163714082
0 THOR ABLESTAR DEB
1 00333U 61015DK  13293.07836956  .00002907  00000-0  73747-3 0  9476
2 00333 066.7194 244.5395 0066704 217.1597 142.4886 14.50937502714237
0 THOR ABLESTAR DEB
1 00333U 61015DK  13294.11233207  .00003117  00000-0  78892-3 0  9483
2 00333 066.7193 241.7437 0066596 216.4155 143.2415 14.50943127714386
0 THOR ABLESTAR DEB
1 00333U 61015DK  13295.14629062  .00003178  00000-0  80375-3 0  9492
2 00333 066.7191 238.9480 0066495 215.6574 144.0085 14.50947524714538
